IRIDIUM 135             
1 43070U 17083A   26201.36137925 -.00000005  00000+0 -88095-5 0  9991
2 43070  86.3985 308.1491 0002107  94.8226 265.3211 14.34217604448909
IRIDIUM 138             
1 43071U 17083B   26201.52628566  .00000180  00000+0  57131-4 0  9994
2 43071  86.4000 307.7806 0002055  95.3250 264.8180 14.34217619448915
IRIDIUM 116             
1 43072U 17083C   26201.35503764  .00000128  00000+0  38516-4 0  9996
2 43072  86.3986 308.1372 0002499  97.5255 262.6225 14.34217081448922
IRIDIUM 130             
1 43073U 17083D   26201.53262986  .00000291  00000+0  96978-4 0  9992
2 43073  86.3994 308.3416 0002327 100.2451 259.9008 14.34218684448897
IRIDIUM 151             
1 43074U 17083E   26201.57702781  .00000115  00000+0  34161-4 0  9990
2 43074  86.3989 308.1028 0002274  95.1013 265.0442 14.34217985448923
IRIDIUM 134             
1 43075U 17083F   26201.54531447  .00000044  00000+0  85215-5 0  9995
2 43075  86.3988 308.1246 0002260  96.2891 263.8562 14.34217916448884
IRIDIUM 137             
1 43076U 17083G   26201.34869509  .00000011  00000+0 -32490-5 0  9999
2 43076  86.3988 308.3004 0002546  90.8927 269.2560 14.34217681448928
IRIDIUM 141             
1 43077U 17083H   26201.34235214  .00000046  00000+0  92103-5 0  9994
2 43077  86.3985 308.1317 0002147  94.1384 266.0057 14.34217284448927
IRIDIUM 153             
1 43078U 17083J   26201.29452995  .00000011  00000+0 -31942-5 0  9993
2 43078  86.3954 276.6297 0002020  95.7433 264.3994 14.34217576450021
IRIDIUM 131             
1 43079U 17083K   26201.32966670 -.00000030  00000+0 -17654-4 0  9993
2 43079  86.3987 308.3251 0002097  93.6950 266.4485 14.34217354448856
IRIDIUM 144             
1 43249U 18030A   26201.30087309  .00000058  00000+0  13471-4 0  9997
2 43249  86.3954 276.5557 0002384  96.3759 263.7709 14.34217319434888
IRIDIUM 149             
1 43250U 18030B   26201.30721572 -.00000018  00000+0 -13415-4 0  9992
2 43250  86.3951 276.5194 0002131  93.8667 266.2773 14.34217367434909
IRIDIUM 157             
1 43251U 18030C   26201.25647437  .00000099  00000+0  28255-4 0  9999
2 43251  86.3953 276.5946 0002298  94.5263 265.6195 14.34218895434875
IRIDIUM 140             
1 43252U 18030D   26201.27550300  .00000140  00000+0  43085-4 0  9999
2 43252  86.3953 276.5993 0002269  95.7729 264.3725 14.34218935434933
IRIDIUM 145             
1 43253U 18030E   26201.26281840  .00000028  00000+0  29202-5 0  9990
2 43253  86.3952 276.5766 0002581  97.4519 262.6970 14.34217375434866
IRIDIUM 146             
1 43254U 18030F   26201.45309595  .00000006  00000+0 -47664-5 0  9999
2 43254  86.3954 276.5092 0002262  95.9494 264.1960 14.34217281434909
IRIDIUM 148             
1 43255U 18030G   26201.28184594  .00000127  00000+0  38401-4 0  9992
2 43255  86.3953 276.6245 0002325  95.1825 264.9636 14.34217919434917
IRIDIUM 142             
1 43256U 18030H   26201.45943864  .00000005  00000+0 -54366-5 0  9990
2 43256  86.3950 276.4379 0002314  96.6011 263.5448 14.34217135434907
IRIDIUM 150             
1 43257U 18030J   26201.28818810  .00000023  00000+0  10242-5 0  9998
2 43257  86.3954 276.6273 0002327  95.9829 264.1632 14.34217166434906
IRIDIUM 143             
1 43258U 18030K   26201.26916058  .00000058  00000+0  13565-4 0  9998
2 43258  86.3955 276.7288 0002329  95.8853 264.2608 14.34217784434835
IRIDIUM 161             
1 43478U 18047C   26201.17047857  .00000157  00000+0  40607-4 0  9999
2 43478  86.4456  74.6765 0002164  80.8257 279.3188 14.43277201429890
IRIDIUM 152             
1 43479U 18047D   26201.17210916 -.00000070  00000+0 -31965-4 0  9991
2 43479  86.3928  74.5367 0001970  84.0580 276.0840 14.34217415427214
IRIDIUM 147             
1 43480U 18047E   26201.38775746  .00000075  00000+0  19723-4 0  9994
2 43480  86.3933  74.4527 0002295  87.6986 272.4473 14.34217936427242
IRIDIUM 110             
1 43481U 18047F   26201.11502418  .00000160  00000+0  49974-4 0  9996
2 43481  86.3937  74.6596 0002037  78.0242 282.1182 14.34217082427199
IRIDIUM 162             
1 43482U 18047G   26201.16417437  .00000167  00000+0  43792-4 0  9997
2 43482  86.4455  74.5696 0002186  86.6421 273.5030 14.43280029429880
IRIDIUM 160             
1 43569U 18061A   26201.06086147  .00000093  00000+0  26041-4 0  9994
2 43569  86.3939  43.0457 0002209  86.9719 273.1729 14.34217872418084
IRIDIUM 166             
1 43570U 18061B   26201.50484360  .00000012  00000+0 -27285-5 0  9998
2 43570  86.3937  42.8099 0002290  89.4560 270.6899 14.34217653418172
IRIDIUM 158             
1 43571U 18061C   26201.26382510  .00000145  00000+0  44748-4 0  9994
2 43571  86.3937  42.9206 0002113  89.0737 271.0701 14.34217825418101
IRIDIUM 165             
1 43572U 18061D   26201.28919568  .00000109  00000+0  31762-4 0  9998
2 43572  86.3944  42.9569 0002244  91.1334 269.0119 14.34217576418130
IRIDIUM 155             
1 43573U 18061E   26201.11160237  .00000042  00000+0  79855-5 0  9994
2 43573  86.3936  42.8988 0002140  90.6933 269.4508 14.34217808418077
