OBJECT_NAME,OBJECT_ID,EPOCH,MEAN_MOTION,ECCENTRICITY,INCLINATION,RA_OF_ASC_NODE,ARG_OF_PERICENTER,MEAN_ANOMALY,EPHEMERIS_TYPE,CLASSIFICATION_TYPE,NORAD_CAT_ID,ELEMENT_SET_NO,REV_AT_EPOCH,BSTAR,MEAN_MOTION_DOT,MEAN_MOTION_DDOT
IRIDIUM 135,2017-083A,2026-07-20T08:40:23.167200,14.34217604,.00021076,86.3985,308.1491,94.8226,265.3211,0,U,43070,999,44890,-.8809517E-5,-.5E-7,0
IRIDIUM 138,2017-083B,2026-07-20T12:37:51.081024,14.34217619,.00020558,86.4000,307.7806,95.3250,264.8180,0,U,43071,999,44891,.57131034E-4,.18E-5,0
IRIDIUM 116,2017-083C,2026-07-20T08:31:15.252096,14.34217081,.0002499,86.3986,308.1372,97.5255,262.6225,0,U,43072,999,44892,.38515575E-4,.128E-5,0
IRIDIUM 130,2017-083D,2026-07-20T12:46:59.219904,14.34218684,.00023273,86.3994,308.3416,100.2451,259.9008,0,U,43073,999,44889,.96977846E-4,.291E-5,0
IRIDIUM 151,2017-083E,2026-07-20T13:50:55.202784,14.34217985,.00022741,86.3989,308.1028,95.1013,265.0442,0,U,43074,999,44892,.34161254E-4,.115E-5,0
IRIDIUM 134,2017-083F,2026-07-20T13:05:15.170208,14.34217916,.00022602,86.3988,308.1246,96.2891,263.8562,0,U,43075,999,44888,.8521541E-5,.44E-6,0
IRIDIUM 137,2017-083G,2026-07-20T08:22:07.255776,14.34217681,.00025462,86.3988,308.3004,90.8927,269.2560,0,U,43076,999,44892,-.3249012E-5,.11E-6,0
IRIDIUM 141,2017-083H,2026-07-20T08:12:59.224896,14.34217284,.00021474,86.3985,308.1317,94.1384,266.0057,0,U,43077,999,44892,.9210312E-5,.46E-6,0
IRIDIUM 153,2017-083J,2026-07-20T07:04:07.387680,14.34217576,.00020207,86.3954,276.6297,95.7433,264.3994,0,U,43078,999,45002,-.3194214E-5,.11E-6,0
IRIDIUM 131,2017-083K,2026-07-20T07:54:43.202880,14.34217354,.00020976,86.3987,308.3251,93.6950,266.4485,0,U,43079,999,44885,-.17653762E-4,-.3E-6,0
IRIDIUM 144,2018-030A,2026-07-20T07:13:15.434976,14.34217319,.00023848,86.3954,276.5557,96.3759,263.7709,0,U,43249,999,43488,.1347089E-4,.58E-6,0
IRIDIUM 149,2018-030B,2026-07-20T07:22:23.438208,14.34217367,.00021317,86.3951,276.5194,93.8667,266.2773,0,U,43250,999,43490,-.13414616E-4,-.18E-6,0
IRIDIUM 157,2018-030C,2026-07-20T06:09:19.385568,14.34218895,.00022981,86.3953,276.5946,94.5263,265.6195,0,U,43251,999,43487,.28255457E-4,.99E-6,0
IRIDIUM 140,2018-030D,2026-07-20T06:36:43.459200,14.34218935,.00022692,86.3953,276.5993,95.7729,264.3725,0,U,43252,999,43493,.43085159E-4,.14E-5,0
IRIDIUM 145,2018-030E,2026-07-20T06:18:27.509760,14.34217375,.00025813,86.3952,276.5766,97.4519,262.6970,0,U,43253,999,43486,.2920207E-5,.28E-6,0
IRIDIUM 146,2018-030F,2026-07-20T10:52:27.490080,14.34217281,.0002262,86.3954,276.5092,95.9494,264.1960,0,U,43254,999,43490,-.4766416E-5,.6E-7,0
IRIDIUM 148,2018-030G,2026-07-20T06:45:51.489216,14.34217919,.00023251,86.3953,276.6245,95.1825,264.9636,0,U,43255,999,43491,.38401157E-4,.127E-5,0
IRIDIUM 142,2018-030H,2026-07-20T11:01:35.498496,14.34217135,.0002314,86.3950,276.4379,96.6011,263.5448,0,U,43256,999,43490,-.5436567E-5,.5E-7,0
IRIDIUM 150,2018-030J,2026-07-20T06:54:59.451840,14.34217166,.00023272,86.3954,276.6273,95.9829,264.1632,0,U,43257,999,43490,.1024193E-5,.23E-6,0
IRIDIUM 143,2018-030K,2026-07-20T06:27:35.474112,14.34217784,.00023294,86.3955,276.7288,95.8853,264.2608,0,U,43258,999,43483,.13565344E-4,.58E-6,0
IRIDIUM 161,2018-047C,2026-07-20T04:05:29.348448,14.43277201,.00021641,86.4456,74.6765,80.8257,279.3188,0,U,43478,999,42989,.40606756E-4,.157E-5,0
IRIDIUM 152,2018-047D,2026-07-20T04:07:50.231424,14.34217415,.00019708,86.3928,74.5367,84.0580,276.0840,0,U,43479,999,42721,-.31964824E-4,-.7E-6,0
IRIDIUM 147,2018-047E,2026-07-20T09:18:22.244544,14.34217936,.00022958,86.3933,74.4527,87.6986,272.4473,0,U,43480,999,42724,.19723063E-4,.75E-6,0
IRIDIUM 110,2018-047F,2026-07-20T02:45:38.089152,14.34217082,.00020373,86.3937,74.6596,78.0242,282.1182,0,U,43481,999,42719,.49973671E-4,.16E-5,0
IRIDIUM 162,2018-047G,2026-07-20T03:56:24.665568,14.43280029,.00021862,86.4455,74.5696,86.6421,273.5030,0,U,43482,999,42988,.43791613E-4,.167E-5,0
IRIDIUM 160,2018-061A,2026-07-20T01:27:38.431008,14.34217872,.00022091,86.3939,43.0457,86.9719,273.1729,0,U,43569,999,41808,.26041396E-4,.93E-6,0
IRIDIUM 166,2018-061B,2026-07-20T12:06:58.487040,14.34217653,.00022907,86.3937,42.8099,89.4560,270.6899,0,U,43570,999,41817,-.2728516E-5,.12E-6,0
IRIDIUM 158,2018-061C,2026-07-20T06:19:54.488640,14.34217825,.00021134,86.3937,42.9206,89.0737,271.0701,0,U,43571,999,41810,.44748091E-4,.145E-5,0
IRIDIUM 165,2018-061D,2026-07-20T06:56:26.506752,14.34217576,.00022444,86.3944,42.9569,91.1334,269.0119,0,U,43572,999,41813,.31762171E-4,.109E-5,0
IRIDIUM 155,2018-061E,2026-07-20T02:40:42.444768,14.34217808,.00021408,86.3936,42.8988,90.6933,269.4508,0,U,43573,999,41807,.7985506E-5,.42E-6,0
